[{"OBJECT_NAME":"LEMUR-2-PETERG","OBJECT_ID":"2017-042S","EPOCH":"2026-03-09T11:34:35.656032","MEAN_MOTION":15.29611459,"ECCENTRICITY":0.00037,"INCLINATION":97.398,"RA_OF_ASC_NODE":253.6596,"ARG_OF_PERICENTER":341.6938,"MEAN_ANOMALY":18.4169,"EPHEMERIS_TYPE":0,"CLASSIFICATION_TYPE":"U","NORAD_CAT_ID":42841,"ELEMENT_SET_NO":999,"REV_AT_EPOCH":47317,"BSTAR":0.00081076471,"MEAN_MOTION_DOT":0.0002324,"MEAN_MOTION_DDOT":0},{"OBJECT_NAME":"STARLINK-31080","OBJECT_ID":"2023-200Q","EPOCH":"2026-03-09T22:00:01.999584","MEAN_MOTION":15.2671397,"ECCENTRICITY":0.00015386,"INCLINATION":43.0006,"RA_OF_ASC_NODE":167.0599,"ARG_OF_PERICENTER":271.8897,"MEAN_ANOMALY":7.4412,"EPHEMERIS_TYPE":0,"CLASSIFICATION_TYPE":"U","NORAD_CAT_ID":58603,"ELEMENT_SET_NO":999,"REV_AT_EPOCH":578,"BSTAR":7.089595e-5,"MEAN_MOTION_DOT":1.641e-5,"MEAN_MOTION_DDOT":0}]
